[{"OBJECT_NAME":"STARLINK-35305","OBJECT_ID":"2025-268E","EPOCH":"2026-03-08T23:48:22.226688","MEAN_MOTION":15.27536182,"ECCENTRICITY":0.0001415,"INCLINATION":42.9995,"RA_OF_ASC_NODE":350.9526,"ARG_OF_PERICENTER":290.3728,"MEAN_ANOMALY":69.6972,"EPHEMERIS_TYPE":0,"CLASSIFICATION_TYPE":"U","NORAD_CAT_ID":66561,"ELEMENT_SET_NO":999,"REV_AT_EPOCH":1785,"BSTAR":-0.0011986283,"MEAN_MOTION_DOT":-0.00033055,"MEAN_MOTION_DDOT":0},{"OBJECT_NAME":"FENGYUN 1C DEB","OBJECT_ID":"1999-025CKC","EPOCH":"2026-03-08T17:03:17.573184","MEAN_MOTION":15.04248193,"ECCENTRICITY":0.00988517,"INCLINATION":98.9933,"RA_OF_ASC_NODE":156.7578,"ARG_OF_PERICENTER":358.897,"MEAN_ANOMALY":1.2019,"EPHEMERIS_TYPE":0,"CLASSIFICATION_TYPE":"U","NORAD_CAT_ID":31877,"ELEMENT_SET_NO":999,"REV_AT_EPOCH":332,"BSTAR":0.0010830251,"MEAN_MOTION_DOT":0.0001673,"MEAN_MOTION_DDOT":0}]
